ONEWEB-0570             
1 55149U 23004K   23303.17891664 -.00135777  00000+0 -13875+0 0  9990
2 55149  87.4286 167.3971 0002891  67.1680 292.9791 13.77562735 42958
ONEWEB-0571             
1 55150U 23004L   23303.25547452 -.00167981  00000+0 -16878+0 0  9992
2 55150  87.4321 167.3921 0001793  59.8033 300.3310 13.78807213 42972
ONEWEB-0572             
1 55151U 23004M   23303.24267957  .00000135  00000+0  31483-3 0  9999
2 55151  87.9255 196.8542 0001741  91.5318 268.6013 13.17649238 40936
ONEWEB-0573             
1 55152U 23004N   23299.66667824 -.01030838  00000+0 -97236+0 0  9997
2 55152  87.3688 168.4013 0003016   8.0776 118.3683 13.84681973 42467
ONEWEB-0588             
1 55153U 23004P   23299.66667824 -.00985880  00000+0 -92296+0 0  9994
2 55153  87.3516 168.3844 0004714 344.4497  28.7450 13.84974237 42466
ONEWEB-0598             
1 55154U 23004Q   23302.81998672  .00000532  00000+0  14653-2 0  9999
2 55154  87.8993 212.0963 0000918  67.8039 292.3186 13.11417220 39892
ONEWEB-0599             
1 55155U 23004R   23302.74909682  .00000112  00000+0  25535-3 0  9991
2 55155  87.9257 196.9257 0001778  69.6652 290.4670 13.17653750 40872
ONEWEB-0614             
1 55156U 23004S   23302.81514087  .00000554  00000+0  15270-2 0  9995
2 55156  87.9023 212.0843 0002227  81.6899 278.4482 13.11419394 39853
